{
  "type": "FeatureCollection",
  "features": [
    {
      "type": "Feature",
      "properties": {
        "norad_id": 26766,
        "name": "INTELSAT 10 (IS-10)",
        "group": "intelsat",
        "lat": 8.561747631503257,
        "lon": 157.17886977932457,
        "alt_km": 36140.80934629538,
        "timestamp": "2025-12-03T17:47:50.379614+00:00",
        "meta_object_name": "INTELSAT 10 (IS-10)",
        "meta_object_id": "2001-019A",
        "meta_epoch": "2025-12-03T11:53:38.524992",
        "meta_mean_motion": 0.99078102,
        "meta_eccentricity": 0.0007771,
        "meta_inclination": 8.6063,
        "meta_ra_of_asc_node": 61.2471,
        "meta_arg_of_pericenter": 218.7876,
        "meta_mean_anomaly": 149.4282,
        "meta_ephemeris_type": 0,
        "meta_classification_type": "U",
        "meta_norad_cat_id": 26766,
        "meta_element_set_no": 999,
        "meta_rev_at_epoch": 4364,
        "meta_bstar": 0,
        "meta_mean_motion_dot": -1.56e-06,
        "meta_mean_motion_ddot": 0,
        "tle_line1": "1 26766U 01019A   25337.49558478 -.00000156  00000+0  00000+0 0  9999",
        "tle_line2": "2 26766   8.6063  61.2471 0007771 218.7876 149.4282  0.99078102 43647"
      },
      "geometry": {
        "type": "Point",
        "coordinates": [
          157.17886977932457,
          8.561747631503257
        ]
      }
    },
    {
      "type": "Feature",
      "properties": {
        "norad_id": 26900,
        "name": "INTELSAT 902 (IS-902)",
        "group": "intelsat",
        "lat": -3.2794872797173107,
        "lon": -70.45838622355794,
        "alt_km": 35773.21683136614,
        "timestamp": "2025-12-03T17:47:50.379639+00:00",
        "meta_object_name": "INTELSAT 902 (IS-902)",
        "meta_object_id": "2001-039A",
        "meta_epoch": "2025-12-01T16:59:59.311968",
        "meta_mean_motion": 1.00270327,
        "meta_eccentricity": 0.00043097,
        "meta_inclination": 5.6187,
        "meta_ra_of_asc_node": 74.2002,
        "meta_arg_of_pericenter": 175.119,
        "meta_mean_anomaly": 26.3816,
        "meta_ephemeris_type": 0,
        "meta_classification_type": "U",
        "meta_norad_cat_id": 26900,
        "meta_element_set_no": 999,
        "meta_rev_at_epoch": 8871,
        "meta_bstar": 0,
        "meta_mean_motion_dot": -2.63e-06,
        "meta_mean_motion_ddot": 0,
        "tle_line1": "1 26900U 01039A   25335.70832537 -.00000263  00000+0  00000+0 0  9993",
        "tle_line2": "2 26900   5.6187  74.2002 0004309 175.1190  26.3816  1.00270327 88713"
      },
      "geometry": {
        "type": "Point",
        "coordinates": [
          -70.45838622355794,
          -3.2794872797173107
        ]
      }
    },
    {
      "type": "Feature",
      "properties": {
        "norad_id": 27380,
        "name": "INTELSAT 904 (IS-904)",
        "group": "intelsat",
        "lat": -5.385595510850771,
        "lon": -51.88047040869406,
        "alt_km": 35782.11945368508,
        "timestamp": "2025-12-03T17:47:50.379655+00:00",
        "meta_object_name": "INTELSAT 904 (IS-904)",
        "meta_object_id": "2002-007A",
        "meta_epoch": "2025-12-03T03:19:57.879840",
        "meta_mean_motion": 1.00269372,
        "meta_eccentricity": 0.00015814,
        "meta_inclination": 6.4293,
        "meta_ra_of_asc_node": 71.5412,
        "meta_arg_of_pericenter": 200.7188,
        "meta_mean_anomaly": 178.4698,
        "meta_ephemeris_type": 0,
        "meta_classification_type": "U",
        "meta_norad_cat_id": 27380,
        "meta_element_set_no": 999,
        "meta_rev_at_epoch": 4980,
        "meta_bstar": 0,
        "meta_mean_motion_dot": -2.1e-06,
        "meta_mean_motion_ddot": 0,
        "tle_line1": "1 27380U 02007A   25337.13886435 -.00000210  00000+0  00000+0 0  9999",
        "tle_line2": "2 27380   6.4293  71.5412 0001581 200.7188 178.4698  1.00269372 49801"
      },
      "geometry": {
        "type": "Point",
        "coordinates": [
          -51.88047040869406,
          -5.385595510850771
        ]
      }
    },
    {
      "type": "Feature",
      "properties": {
        "norad_id": 27426,
        "name": "DIRECTV 5 (TEMPO 1)",
        "group": "intelsat",
        "lat": 2.0365330994121646,
        "lon": -130.31182812965125,
        "alt_km": 35773.29366247345,
        "timestamp": "2025-12-03T17:47:50.379669+00:00",
        "meta_object_name": "DIRECTV 5 (TEMPO 1)",
        "meta_object_id": "2002-023A",
        "meta_epoch": "2025-12-03T09:48:28.408032",
        "meta_mean_motion": 1.00271174,
        "meta_eccentricity": 0.0003776,
        "meta_inclination": 4.3765,
        "meta_ra_of_asc_node": 77.7618,
        "meta_arg_of_pericenter": 189.4718,
        "meta_mean_anomaly": 202.2592,
        "meta_ephemeris_type": 0,
        "meta_classification_type": "U",
        "meta_norad_cat_id": 27426,
        "meta_element_set_no": 999,
        "meta_rev_at_epoch": 8616,
        "meta_bstar": 0,
        "meta_mean_motion_dot": -4e-07,
        "meta_mean_motion_ddot": 0,
        "tle_line1": "1 27426U 02023A   25337.40866213 -.00000040  00000+0  00000+0 0  9991",
        "tle_line2": "2 27426   4.3765  77.7618 0003776 189.4718 202.2592  1.00271174 86161"
      },
      "geometry": {
        "type": "Point",
        "coordinates": [
          -130.31182812965125,
          2.0365330994121646
        ]
      }
    },
    {
      "type": "Feature",
      "properties": {
        "norad_id": 27438,
        "name": "INTELSAT 905 (IS-905)",
        "group": "intelsat",
        "lat": 4.744434061934938,
        "lon": -157.27373282515242,
        "alt_km": 35778.11313880349,
        "timestamp": "2025-12-03T17:47:50.379682+00:00",
        "meta_object_name": "INTELSAT 905 (IS-905)",
        "meta_object_id": "2002-027A",
        "meta_epoch": "2025-12-03T09:40:44.148864",
        "meta_mean_motion": 1.00273288,
        "meta_eccentricity": 0.000313,
        "meta_inclination": 6.2606,
        "meta_ra_of_asc_node": 72.1621,
        "meta_arg_of_pericenter": 189.1417,
        "meta_mean_anomaly": 179.1858,
        "meta_ephemeris_type": 0,
        "meta_classification_type": "U",
        "meta_norad_cat_id": 27438,
        "meta_element_set_no": 999,
        "meta_rev_at_epoch": 4940,
        "meta_bstar": 0,
        "meta_mean_motion_dot": 1.09e-06,
        "meta_mean_motion_ddot": 0,
        "tle_line1": "1 27438U 02027A   25337.40328876  .00000109  00000+0  00000+0 0  9991",
        "tle_line2": "2 27438   6.2606  72.1621 0003130 189.1417 179.1858  1.00273288 49400"
      },
      "geometry": {
        "type": "Point",
        "coordinates": [
          -157.27373282515242,
          4.744434061934938
        ]
      }
    },
    {
      "type": "Feature",
      "properties": {
        "norad_id": 27445,
        "name": "GALAXY 3C (G-3C)",
        "group": "intelsat",
        "lat": 0.8486219114278567,
        "lon": -115.05436270350765,
        "alt_km": 35784.238191806944,
        "timestamp": "2025-12-03T17:47:50.379695+00:00",
        "meta_object_name": "GALAXY 3C (G-3C)",
        "meta_object_id": "2002-030A",
        "meta_epoch": "2025-12-03T09:52:50.491200",
        "meta_mean_motion": 1.00270115,
        "meta_eccentricity": 0.0001284,
        "meta_inclination": 3.2391,
        "meta_ra_of_asc_node": 80.6023,
        "meta_arg_of_pericenter": 98.3929,
        "meta_mean_anomaly": 306.8593,
        "meta_ephemeris_type": 0,
        "meta_classification_type": "U",
        "meta_norad_cat_id": 27445,
        "meta_element_set_no": 999,
        "meta_rev_at_epoch": 4453,
        "meta_bstar": 0,
        "meta_mean_motion_dot": -1.35e-06,
        "meta_mean_motion_ddot": 0,
        "tle_line1": "1 27445U 02030A   25337.41169550 -.00000135  00000+0  00000+0 0  9996",
        "tle_line2": "2 27445   3.2391  80.6023 0001284  98.3929 306.8593  1.00270115 44533"
      },
      "geometry": {
        "type": "Point",
        "coordinates": [
          -115.05436270350765,
          0.8486219114278567
        ]
      }
    },
    {
      "type": "Feature",
      "properties": {
        "norad_id": 27513,
        "name": "INTELSAT 906 (IS-906)",
        "group": "intelsat",
        "lat": -2.735010856188534,
        "lon": 44.064109687530255,
        "alt_km": 35804.80980771393,
        "timestamp": "2025-12-03T17:47:50.379708+00:00",
        "meta_object_name": "INTELSAT 906 (IS-906)",
        "meta_object_id": "2002-041A",
        "meta_epoch": "2025-12-03T08:55:25.991040",
        "meta_mean_motion": 1.00273124,
        "meta_eccentricity": 0.0006118,
        "meta_inclination": 5.3053,
        "meta_ra_of_asc_node": 75.3426,
        "meta_arg_of_pericenter": 192.3717,
        "meta_mean_anomaly": 2.7424,
        "meta_ephemeris_type": 0,
        "meta_classification_type": "U",
        "meta_norad_cat_id": 27513,
        "meta_element_set_no": 999,
        "meta_rev_at_epoch": 8506,
        "meta_bstar": 0,
        "meta_mean_motion_dot": 2.9e-07,
        "meta_mean_motion_ddot": 0,
        "tle_line1": "1 27513U 02041A   25337.37182860  .00000029  00000+0  00000+0 0  9999",
        "tle_line2": "2 27513   5.3053  75.3426 0006118 192.3717   2.7424  1.00273124 85067"
      },
      "geometry": {
        "type": "Point",
        "coordinates": [
          44.064109687530255,
          -2.735010856188534
        ]
      }
    }
  ]
}